COSMOS 2251 DEB         
1 34912U 93036ADH 24152.85177990  .00030185  00000+0  22320-2 0  9997
2 34912  74.1520 107.6291 0035518 158.6857 201.5821 15.02556316813317
COSMOS 2251 DEB         
1 34913U 93036ADJ 24146.99430248  .00000259  00000+0  10106-3 0  9993
2 34913  74.0283 239.0629 0020213 129.9391  45.4067 14.34315858570751
COSMOS 2251 DEB         
1 34914U 93036ADK 24139.85236844  .00047676  00000+0  43669-2 0  9990
2 34914  73.9931 186.9376 0108263 245.0990 113.8909 14.90282517805018
COSMOS 2251 DEB         
1 34918U 93036ADP 24150.09614674  .00005824  00000+0  16252-2 0  9991
2 34918  74.0704 295.1497 0042034  52.8973  70.0333 14.45941872571579
COSMOS 2251 DEB         
1 34920U 93036ADR 24151.17186886  .00018194  00000+0  29002-2 0  9994
2 34920  74.0259  58.5295 0012620 225.1986 134.8161 14.71873525590398
COSMOS 2251 DEB         
1 34924U 93036ADV 24152.97122076  .00003438  00000+0  82937-3 0  9990
2 34924  74.0446  71.3909 0064418 294.7552 191.3362 14.52320255795730
COSMOS 2251 DEB         
1 34944U 93036ADX 24150.76352307  .00001257  00000+0  56226-3 0  9998
2 34944  73.7575 163.5564 0224746 102.5911 260.0462 14.11071917563000
COSMOS 2251 DEB         
1 34946U 93036ADZ 24151.88987975  .00003578  00000+0  80083-3 0  9995
2 34946  74.0243 332.2301 0055940 247.2482 112.2764 14.56096614800276
COSMOS 2251 DEB         
1 34948U 93036AEB 24152.87135740  .00021659  00000+0  34692-2 0  9996
2 34948  74.0117  84.7892 0020586 251.3768 166.0405 14.71539651797086
COSMOS 2251 DEB         
1 34949U 93036AEC 24152.33184239  .00004645  00000+0  76700-3 0  9998
2 34949  74.0208 119.8732 0085925  45.4025 315.4113 14.68245455801193
COSMOS 2251 DEB         
1 34951U 93036AEE 24150.36890010  .00016507  00000+0  19168-2 0  9997
2 34951  74.0108 125.1150 0043997  31.4539 328.9256 14.84668157803664
COSMOS 2251 DEB         
1 34953U 93036AEG 24151.09303711  .00004378  00000+0  90913-3 0  9998
2 34953  74.0971  23.2454 0072108 169.4031 341.8493 14.58796068799063
COSMOS 2251 DEB         
1 34954U 93036AEH 24150.07832155  .00010721  00000+0  18177-2 0  9995
2 34954  73.9946  51.4466 0013456 296.5796  63.3995 14.69267216796713
COSMOS 2251 DEB         
1 34955U 93036AEJ 24153.07853049  .00010785  00000+0  11198-2 0  9990
2 34955  74.0369 292.9952 0101917 153.9527 206.6834 14.86186765816776
COSMOS 2251 DEB         
1 34958U 93036AEM 24152.77310683  .00027617  00000+0  15070-2 0  9996
2 34958  74.0051  76.9446 0099923 303.1044  56.0585 15.09977490816905
COSMOS 2251 DEB         
1 34962U 93036AER 24152.01253557  .00001689  00000+0  51183-3 0  9991
2 34962  74.0310 158.1974 0017692  43.2493 317.0049 14.42955877796116
COSMOS 2251 DEB         
1 34963U 93036AES 24152.92448022  .00004126  00000+0  12544-2 0  9991
2 34963  74.1766   0.1594 0044438 353.9804   6.0812 14.41826886787043
COSMOS 2251 DEB         
1 34964U 93036AET 24152.90494797  .00004287  00000+0  25906-2 0  9994
2 34964  73.9791 238.1138 0224857 215.5506 143.0470 13.95055723766549
COSMOS 2251 DEB         
1 34965U 93036AEU 24150.26697783  .00001806  00000+0  51020-3 0  9993
2 34965  74.0535  99.6007 0026183   4.1064 356.0304 14.46192088789748
COSMOS 2251 DEB         
1 34967U 93036AEW 24148.59569142  .00002314  00000+0  74190-3 0  9993
2 34967  73.9947 222.7516 0040373 142.5731 217.8248 14.39593353570532
COSMOS 2251 DEB         
1 34968U 93036AEX 24153.54202895  .00000980  00000+0  20991-3 0  9991
2 34968  74.0406 231.7973 0088247 135.3131 225.5190 14.57718350804097
COSMOS 2251 DEB         
1 34969U 93036AEY 24153.16009096  .00001084  00000+0  41419-3 0  9992
2 34969  74.0144 324.2787 0076938 228.1620 131.2945 14.30309670571304
COSMOS 2251 DEB         
1 34971U 93036AFA 24153.02784816  .00001155  00000+0  27317-3 0  9990
2 34971  73.9789 267.9891 0073373 264.6850 212.4960 14.53717240580332
COSMOS 2251 DEB         
1 34972U 93036AFB 24153.15240551  .00007489  00000+0  16462-2 0  9992
2 34972  73.9951  50.0296 0042636 337.5780 174.7034 14.57108104794532
COSMOS 2251 DEB         
1 34976U 93036AFF 24153.47994443  .00010134  00000+0  19010-2 0  9990
2 34976  74.0621 310.5549 0059661 146.5550 279.2135 14.63672327800515
COSMOS 2251 DEB         
1 34977U 93036AFG 24153.41444163  .00033532  00000+0  40001-2 0  9995
2 34977  74.0145  52.3702 0032190 241.6295 118.1636 14.83741907795917
COSMOS 2251 DEB         
1 34979U 93036AFJ 24153.40338933  .00008407  00000+0  15033-2 0  9993
2 34979  74.0442 276.6635 0062489 140.9369 219.6338 14.65728420799849
COSMOS 2251 DEB         
1 34989U 93036AFM 24153.44780118  .00017626  00000+0  26886-2 0  9995
2 34989  74.0140 295.4159 0020224 199.4343 160.6061 14.73707059797803
COSMOS 2251 DEB         
1 34990U 93036AFN 24152.82952074  .00001203  00000+0  39276-3 0  9992
2 34990  74.0475 207.3013 0015842  45.0859 315.1578 14.39601422792809
COSMOS 2251 DEB         
1 34991U 93036AFP 24152.57161794  .00249723  00000+0  11425-1 0  9991
2 34991  74.0236 245.6174 0007967 313.6638  46.3897 15.19287388803750
