OBJECT_NAME,OBJECT_ID,EPOCH,MEAN_MOTION,ECCENTRICITY,INCLINATION,RA_OF_ASC_NODE,ARG_OF_PERICENTER,MEAN_ANOMALY,EPHEMERIS_TYPE,CLASSIFICATION_TYPE,NORAD_CAT_ID,ELEMENT_SET_NO,REV_AT_EPOCH,BSTAR,MEAN_MOTION_DOT,MEAN_MOTION_DDOT
COSMOS 2251 DEB,1993-036ADH,2024-05-31T20:26:33.783360,15.02556316,0.0035518,74.152,107.6291,158.6857,201.5821,0,U,34912,999,81331,0.002232,0.00030185,0
COSMOS 2251 DEB,1993-036ADJ,2024-05-25T23:51:47.734272,14.34315858,0.0020213,74.0283,239.0629,129.9391,45.4067,0,U,34913,999,57075,0.00010106,2.59e-06,0
COSMOS 2251 DEB,1993-036ADK,2024-05-18T20:27:24.633216,14.90282517,0.0108263,73.9931,186.9376,245.099,113.8909,0,U,34914,999,80501,0.0043669,0.00047676,0
COSMOS 2251 DEB,1993-036ADP,2024-05-29T02:18:27.078336,14.45941872,0.0042034,74.0704,295.1497,52.8973,70.0333,0,U,34918,999,57157,0.0016252,5.824e-05,0
COSMOS 2251 DEB,1993-036ADR,2024-05-30T04:07:29.469504,14.71873525,0.001262,74.0259,58.5295,225.1986,134.8161,0,U,34920,999,59039,0.0029002,0.00018194,0
COSMOS 2251 DEB,1993-036ADV,2024-05-31T23:18:33.473664,14.52320255,0.0064418,74.0446,71.3909,294.7552,191.3362,0,U,34924,999,79573,0.00082937,3.438e-05,0
COSMOS 2251 DEB,1993-036ADX,2024-05-29T18:19:28.393248,14.11071917,0.0224746,73.7575,163.5564,102.5911,260.0462,0,U,34944,999,56300,0.00056226,1.257e-05,0
COSMOS 2251 DEB,1993-036ADZ,2024-05-30T21:21:25.610400,14.56096614,0.005594,74.0243,332.2301,247.2482,112.2764,0,U,34946,999,80027,0.00080083,3.578e-05,0
COSMOS 2251 DEB,1993-036AEB,2024-05-31T20:54:45.279360,14.71539651,0.0020586,74.0117,84.7892,251.3768,166.0405,0,U,34948,999,79708,0.0034692,0.00021659,0
COSMOS 2251 DEB,1993-036AEC,2024-05-31T07:57:51.182496,14.68245455,0.0085925,74.0208,119.8732,45.4025,315.4113,0,U,34949,999,80119,0.000767,4.645e-05,0
COSMOS 2251 DEB,1993-036AEE,2024-05-29T08:51:12.968640,14.84668157,0.0043997,74.0108,125.115,31.4539,328.9256,0,U,34951,999,80366,0.0019168,0.00016507,0
COSMOS 2251 DEB,1993-036AEG,2024-05-30T02:13:58.406304,14.58796068,0.0072108,74.0971,23.2454,169.4031,341.8493,0,U,34953,999,79906,0.00090913,4.378e-05,0
COSMOS 2251 DEB,1993-036AEH,2024-05-29T01:52:46.981920,14.69267216,0.0013456,73.9946,51.4466,296.5796,63.3995,0,U,34954,999,79671,0.0018177,0.00010721,0
COSMOS 2251 DEB,1993-036AEJ,2024-06-01T01:53:05.034336,14.86186765,0.0101917,74.0369,292.9952,153.9527,206.6834,0,U,34955,999,81677,0.0011198,0.00010785,0
COSMOS 2251 DEB,1993-036AEM,2024-05-31T18:33:16.430112,15.0997749,0.0099923,74.0051,76.9446,303.1044,56.0585,0,U,34958,999,81690,0.001507,0.00027617,0
COSMOS 2251 DEB,1993-036AER,2024-05-31T00:18:03.073248,14.42955877,0.0017692,74.031,158.1974,43.2493,317.0049,0,U,34962,999,79611,0.00051183,1.689e-05,0
COSMOS 2251 DEB,1993-036AES,2024-05-31T22:11:15.091008,14.41826886,0.0044438,74.1766,0.1594,353.9804,6.0812,0,U,34963,999,78704,0.0012544,4.126e-05,0
COSMOS 2251 DEB,1993-036AET,2024-05-31T21:43:07.504608,13.95055723,0.0224857,73.9791,238.1138,215.5506,143.047,0,U,34964,999,76654,0.0025906,4.287e-05,0
COSMOS 2251 DEB,1993-036AEU,2024-05-29T06:24:26.884512,14.46192088,0.0026183,74.0535,99.6007,4.1064,356.0304,0,U,34965,999,78974,0.0005102,1.806e-05,0
COSMOS 2251 DEB,1993-036AEW,2024-05-27T14:17:47.738688,14.39593353,0.0040373,73.9947,222.7516,142.5731,217.8248,0,U,34967,999,57053,0.0007419,2.314e-05,0
COSMOS 2251 DEB,1993-036AEX,2024-06-01T13:00:31.301280,14.5771835,0.0088247,74.0406,231.7973,135.3131,225.519,0,U,34968,999,80409,0.00020991,9.8e-06,0
COSMOS 2251 DEB,1993-036AEY,2024-06-01T03:50:31.858944,14.3030967,0.0076938,74.0144,324.2787,228.162,131.2945,0,U,34969,999,57130,0.00041419,1.084e-05,0
COSMOS 2251 DEB,1993-036AFA,2024-06-01T00:40:06.081024,14.5371724,0.0073373,73.9789,267.9891,264.685,212.496,0,U,34971,999,58033,0.00027317,1.155e-05,0
COSMOS 2251 DEB,1993-036AFB,2024-06-01T03:39:27.836064,14.57108104,0.0042636,73.9951,50.0296,337.578,174.7034,0,U,34972,999,79453,0.0016462,7.489e-05,0
COSMOS 2251 DEB,1993-036AFF,2024-06-01T11:31:07.198752,14.63672327,0.0059661,74.0621,310.5549,146.555,279.2135,0,U,34976,999,80051,0.001901,0.00010134,0
COSMOS 2251 DEB,1993-036AFG,2024-06-01T09:56:47.756832,14.83741907,0.003219,74.0145,52.3702,241.6295,118.1636,0,U,34977,999,79591,0.0040001,0.00033532,0
COSMOS 2251 DEB,1993-036AFJ,2024-06-01T09:40:52.838112,14.6572842,0.0062489,74.0442,276.6635,140.9369,219.6338,0,U,34979,999,79984,0.0015033,8.407e-05,0
COSMOS 2251 DEB,1993-036AFM,2024-06-01T10:44:50.021952,14.73707059,0.0020224,74.014,295.4159,199.4343,160.6061,0,U,34989,999,79780,0.0026886,0.00017626,0
COSMOS 2251 DEB,1993-036AFN,2024-05-31T19:54:30.591936,14.39601422,0.0015842,74.0475,207.3013,45.0859,315.1578,0,U,34990,999,79280,0.00039276,1.203e-05,0
COSMOS 2251 DEB,1993-036AFP,2024-05-31T13:43:07.790016,15.19287388,0.0007967,74.0236,245.6174,313.6638,46.3897,0,U,34991,999,80375,0.011425,0.00249723,0
